{
  "type": "FeatureCollection",
  "features": [
    {
      "type": "Feature",
      "properties": {
        "norad_id": 33939,
        "name": "COSMOS 2251 DEB",
        "group": "cosmos-2251-debris",
        "lat": 64.8427922476083,
        "lon": 126.57836086817746,
        "alt_km": 560.0018303035249,
        "timestamp": "2025-12-08T15:42:50.189118+00:00",
        "meta_object_name": "COSMOS 2251 DEB",
        "meta_object_id": "1993-036EU",
        "meta_epoch": "2025-12-08T07:23:41.345088",
        "meta_mean_motion": 14.99349633,
        "meta_eccentricity": 0.00031091,
        "meta_inclination": 74.0073,
        "meta_ra_of_asc_node": 89.6449,
        "meta_arg_of_pericenter": 82.4979,
        "meta_mean_anomaly": 277.656,
        "meta_ephemeris_type": 0,
        "meta_classification_type": "U",
        "meta_norad_cat_id": 33939,
        "meta_element_set_no": 999,
        "meta_rev_at_epoch": 88686,
        "meta_bstar": 0.0040731742,
        "meta_mean_motion_dot": 0.00050146,
        "meta_mean_motion_ddot": 0,
        "tle_line1": "1 33939U 93036EU  25342.30811742  .00050146  00000+0  40732-2 0  9993",
        "tle_line2": "2 33939  74.0073  89.6449 0003109  82.4979 277.6560 14.99349633886862"
      },
      "geometry": {
        "type": "Point",
        "coordinates": [
          126.57836086817746,
          64.8427922476083
        ]
      }
    },
    {
      "type": "Feature",
      "properties": {
        "norad_id": 33940,
        "name": "COSMOS 2251 DEB",
        "group": "cosmos-2251-debris",
        "lat": 71.91475727910547,
        "lon": -147.51967228244604,
        "alt_km": 696.9912656383021,
        "timestamp": "2025-12-08T15:42:50.189129+00:00",
        "meta_object_name": "COSMOS 2251 DEB",
        "meta_object_id": "1993-036EV",
        "meta_epoch": "2025-12-08T04:21:52.153632",
        "meta_mean_motion": 14.58722421,
        "meta_eccentricity": 0.00115147,
        "meta_inclination": 74.0396,
        "meta_ra_of_asc_node": 152.1748,
        "meta_arg_of_pericenter": 231.5509,
        "meta_mean_anomaly": 247.5924,
        "meta_ephemeris_type": 0,
        "meta_classification_type": "U",
        "meta_norad_cat_id": 33940,
        "meta_element_set_no": 999,
        "meta_rev_at_epoch": 88527,
        "meta_bstar": 0.0014126463,
        "meta_mean_motion_dot": 6.576e-05,
        "meta_mean_motion_ddot": 0,
        "tle_line1": "1 33940U 93036EV  25342.18185363  .00006576  00000+0  14126-2 0  9990",
        "tle_line2": "2 33940  74.0396 152.1748 0011514 231.5509 247.5924 14.58722421885274"
      },
      "geometry": {
        "type": "Point",
        "coordinates": [
          -147.51967228244604,
          71.91475727910547
        ]
      }
    },
    {
      "type": "Feature",
      "properties": {
        "norad_id": 33942,
        "name": "COSMOS 2251 DEB",
        "group": "cosmos-2251-debris",
        "lat": -41.86240252938267,
        "lon": 117.21396278197291,
        "alt_km": 782.8112172529873,
        "timestamp": "2025-12-08T15:42:50.189139+00:00",
        "meta_object_name": "COSMOS 2251 DEB",
        "meta_object_id": "1993-036EX",
        "meta_epoch": "2025-12-08T06:50:37.754016",
        "meta_mean_motion": 14.37978605,
        "meta_eccentricity": 0.00201008,
        "meta_inclination": 74.0364,
        "meta_ra_of_asc_node": 283.0323,
        "meta_arg_of_pericenter": 7.2103,
        "meta_mean_anomaly": 104.3138,
        "meta_ephemeris_type": 0,
        "meta_classification_type": "U",
        "meta_norad_cat_id": 33942,
        "meta_element_set_no": 999,
        "meta_rev_at_epoch": 88070,
        "meta_bstar": 0.00046462977,
        "meta_mean_motion_dot": 1.382e-05,
        "meta_mean_motion_ddot": 0,
        "tle_line1": "1 33942U 93036EX  25342.28515919  .00001382  00000+0  46463-3 0  9997",
        "tle_line2": "2 33942  74.0364 283.0323 0020100   7.2103 104.3138 14.37978605880707"
      },
      "geometry": {
        "type": "Point",
        "coordinates": [
          117.21396278197291,
          -41.86240252938267
        ]
      }
    },
    {
      "type": "Feature",
      "properties": {
        "norad_id": 33944,
        "name": "COSMOS 2251 DEB",
        "group": "cosmos-2251-debris",
        "lat": 65.33737002779161,
        "lon": 97.8879092965967,
        "alt_km": 710.6383894587061,
        "timestamp": "2025-12-08T15:42:50.189149+00:00",
        "meta_object_name": "COSMOS 2251 DEB",
        "meta_object_id": "1993-036EZ",
        "meta_epoch": "2025-12-08T07:22:28.530624",
        "meta_mean_motion": 14.37329182,
        "meta_eccentricity": 0.01120249,
        "meta_inclination": 74.0401,
        "meta_ra_of_asc_node": 317.0812,
        "meta_arg_of_pericenter": 57.8497,
        "meta_mean_anomaly": 52.9215,
        "meta_ephemeris_type": 0,
        "meta_classification_type": "U",
        "meta_norad_cat_id": 33944,
        "meta_element_set_no": 999,
        "meta_rev_at_epoch": 87964,
        "meta_bstar": 0.00060288602,
        "meta_mean_motion_dot": 1.908e-05,
        "meta_mean_motion_ddot": 0,
        "tle_line1": "1 33944U 93036EZ  25342.30727466  .00001908  00000+0  60289-3 0  9990",
        "tle_line2": "2 33944  74.0401 317.0812 0112024  57.8497  52.9215 14.37329182879641"
      },
      "geometry": {
        "type": "Point",
        "coordinates": [
          97.8879092965967,
          65.33737002779161
        ]
      }
    },
    {
      "type": "Feature",
      "properties": {
        "norad_id": 33945,
        "name": "COSMOS 2251 DEB",
        "group": "cosmos-2251-debris",
        "lat": -55.71205107372288,
        "lon": -71.08150643638116,
        "alt_km": 785.9102277273396,
        "timestamp": "2025-12-08T15:42:50.189160+00:00",
        "meta_object_name": "COSMOS 2251 DEB",
        "meta_object_id": "1993-036FA",
        "meta_epoch": "2025-12-08T07:37:16.286304",
        "meta_mean_motion": 14.3459556,
        "meta_eccentricity": 0.00217214,
        "meta_inclination": 74.0295,
        "meta_ra_of_asc_node": 314.3705,
        "meta_arg_of_pericenter": 42.0358,
        "meta_mean_anomaly": 318.2456,
        "meta_ephemeris_type": 0,
        "meta_classification_type": "U",
        "meta_norad_cat_id": 33945,
        "meta_element_set_no": 999,
        "meta_rev_at_epoch": 87952,
        "meta_bstar": 0.00027451455,
        "meta_mean_motion_dot": 7.52e-06,
        "meta_mean_motion_ddot": 0,
        "tle_line1": "1 33945U 93036FA  25342.31754961  .00000752  00000+0  27451-3 0  9992",
        "tle_line2": "2 33945  74.0295 314.3705 0021721  42.0358 318.2456 14.34595560879523"
      },
      "geometry": {
        "type": "Point",
        "coordinates": [
          -71.08150643638116,
          -55.71205107372288
        ]
      }
    },
    {
      "type": "Feature",
      "properties": {
        "norad_id": 33948,
        "name": "COSMOS 2251 DEB",
        "group": "cosmos-2251-debris",
        "lat": 42.60474837822939,
        "lon": 117.36510343752542,
        "alt_km": 773.4099051547373,
        "timestamp": "2025-12-08T15:42:50.189170+00:00",
        "meta_object_name": "COSMOS 2251 DEB",
        "meta_object_id": "1993-036FD",
        "meta_epoch": "2025-12-08T05:03:13.622976",
        "meta_mean_motion": 14.35621206,
        "meta_eccentricity": 0.00225119,
        "meta_inclination": 74.0353,
        "meta_ra_of_asc_node": 313.4443,
        "meta_arg_of_pericenter": 30.5749,
        "meta_mean_anomaly": 329.6711,
        "meta_ephemeris_type": 0,
        "meta_classification_type": "U",
        "meta_norad_cat_id": 33948,
        "meta_element_set_no": 999,
        "meta_rev_at_epoch": 87958,
        "meta_bstar": 0.00038346617,
        "meta_mean_motion_dot": 1.083e-05,
        "meta_mean_motion_ddot": 0,
        "tle_line1": "1 33948U 93036FD  25342.21057434  .00001083  00000+0  38347-3 0  9999",
        "tle_line2": "2 33948  74.0353 313.4443 0022511  30.5749 329.6711 14.35621206879588"
      },
      "geometry": {
        "type": "Point",
        "coordinates": [
          117.36510343752542,
          42.60474837822939
        ]
      }
    },
    {
      "type": "Feature",
      "properties": {
        "norad_id": 33971,
        "name": "COSMOS 2251 DEB",
        "group": "cosmos-2251-debris",
        "lat": 35.53133481040376,
        "lon": 69.47835804260146,
        "alt_km": 766.7258154782876,
        "timestamp": "2025-12-08T15:42:50.189181+00:00",
        "meta_object_name": "COSMOS 2251 DEB",
        "meta_object_id": "1993-036FE",
        "meta_epoch": "2025-12-08T05:45:04.502880",
        "meta_mean_motion": 14.39713211,
        "meta_eccentricity": 0.00183363,
        "meta_inclination": 74.025,
        "meta_ra_of_asc_node": 262.0493,
        "meta_arg_of_pericenter": 3.3145,
        "meta_mean_anomaly": 148.624,
        "meta_ephemeris_type": 0,
        "meta_classification_type": "U",
        "meta_norad_cat_id": 33971,
        "meta_element_set_no": 999,
        "meta_rev_at_epoch": 88074,
        "meta_bstar": 0.0005837747,
        "meta_mean_motion_dot": 1.805e-05,
        "meta_mean_motion_ddot": 0,
        "tle_line1": "1 33971U 93036FE  25342.23963545  .00001805  00000+0  58377-3 0  9993",
        "tle_line2": "2 33971  74.0250 262.0493 0018336   3.3145 148.6240 14.39713211880740"
      },
      "geometry": {
        "type": "Point",
        "coordinates": [
          69.47835804260146,
          35.53133481040376
        ]
      }
    }
  ]
}